start=new Date('2022-02-07T00:00:00.000Z').valueOf();
sats=[{"OBJECT_ID":"2021-044AD","MEAN_ELEMENT_THEORY":"SGP4","CENTER_NAME":"EARTH","DECAY_DATE":null,"LAUNCH_DATE":"2021-05-26","INCLINATION":"53.0570","BSTAR":"-0.00003184900000","MEAN_MOTION":"15.06394118","NORAD_CAT_ID":"48665","SEMIMAJOR_AXIS":"6925.367","GP_ID":"195444619","REF_FRAME":"TEME","CLASSIFICATION_TYPE":"U","PERIAPSIS":"546.195","TIME_SYSTEM":"UTC","MEAN_ANOMALY":"301.8095","ELEMENT_SET_NO":"999","ECCENTRICITY":"0.00014970","FILE":"3293822","SITE":"AFETR","MEAN_MOTION_DOT":"-0.00000756","OBJECT_NAME":"STARLINK-2653","RCS_SIZE":"LARGE","RA_OF_ASC_NODE":"329.0627","APOAPSIS":"548.268","EPHEMERIS_TYPE":"0","TLE_LINE2":"2 48665  53.0570 329.0627 0001497  58.3040 301.8095 15.06394118 38983","EPOCH":"2022-02-06T18:44:29.604480","OBJECT_TYPE":"PAYLOAD","ARG_OF_PERICENTER":"58.3040","PERIOD":"95.593","MEAN_MOTION_DDOT":"0.0000000000000","REV_AT_EPOCH":"3898","COUNTRY_CODE":"US","TLE_LINE1":"1 48665U 21044AD  22037.78089820 -.00000756  00000-0 -31849-4 0  9995"},{"ECCENTRICITY":"0.00017160","SITE":"AFETR","MEAN_MOTION_DOT":"-0.00002849","OBJECT_NAME":"STARLINK-2666","FILE":"3293555","RA_OF_ASC_NODE":"332.1783","RCS_SIZE":"LARGE","EPHEMERIS_TYPE":"0","EPOCH":"2022-02-06T02:01:19.658784","TLE_LINE2":"2 48666  53.0553 332.1783 0001716  59.8433 300.2726 15.06393950 38874","APOAPSIS":"548.420","OBJECT_TYPE":"PAYLOAD","PERIOD":"95.593","ARG_OF_PERICENTER":"59.8433","COUNTRY_CODE":"US","TLE_LINE1":"1 48666U 21044AE  22037.08425531 -.00002849  00000-0 -17246-3 0  9991","MEAN_MOTION_DDOT":"0.0000000000000","REV_AT_EPOCH":"3887","OBJECT_ID":"2021-044AE","CENTER_NAME":"EARTH","MEAN_ELEMENT_THEORY":"SGP4","LAUNCH_DATE":"2021-05-26","BSTAR":"-0.00017246000000","INCLINATION":"53.0553","MEAN_MOTION":"15.06393950","DECAY_DATE":null,"REF_FRAME":"TEME","GP_ID":"195414252","CLASSIFICATION_TYPE":"U","NORAD_CAT_ID":"48666","SEMIMAJOR_AXIS":"6925.367","TIME_SYSTEM":"UTC","PERIAPSIS":"546.044","ELEMENT_SET_NO":"999","MEAN_ANOMALY":"300.2726"},{"COUNTRY_CODE":"US","TLE_LINE1":"1 48667U 21044AF  22037.82977804 -.00003080  00000-0 -18804-3 0  9998","MEAN_MOTION_DDOT":"0.0000000000000","REV_AT_EPOCH":"3899","ARG_OF_PERICENTER":"60.4560","PERIOD":"95.593","OBJECT_TYPE":"PAYLOAD","EPHEMERIS_TYPE":"0","EPOCH":"2022-02-06T19:54:52.822656","TLE_LINE2":"2 48667  53.0569 328.8310 0001504  60.4560 299.6579 15.06380204 38992","APOAPSIS":"548.316","RA_OF_ASC_NODE":"328.8310","RCS_SIZE":"LARGE","SITE":"AFETR","OBJECT_NAME":"STARLINK-2735","MEAN_MOTION_DOT":"-0.00003080","FILE":"3293822","ECCENTRICITY":"0.00015040","ELEMENT_SET_NO":"999","MEAN_ANOMALY":"299.6579","TIME_SYSTEM":"UTC","PERIAPSIS":"546.233","GP_ID":"195445621","REF_FRAME":"TEME","CLASSIFICATION_TYPE":"U","NORAD_CAT_ID":"48667","SEMIMAJOR_AXIS":"6925.409","INCLINATION":"53.0569","LAUNCH_DATE":"2021-05-26","BSTAR":"-0.00018804000000","MEAN_MOTION":"15.06380204","DECAY_DATE":null,"OBJECT_ID":"2021-044AF","MEAN_ELEMENT_THEORY":"SGP4","CENTER_NAME":"EARTH"},{"PERIAPSIS":"546.308","TIME_SYSTEM":"UTC","MEAN_ANOMALY":"296.2310","ELEMENT_SET_NO":"999","NORAD_CAT_ID":"48668","SEMIMAJOR_AXIS":"6925.430","REF_FRAME":"TEME","GP_ID":"195445372","CLASSIFICATION_TYPE":"U","DECAY_DATE":null,"INCLINATION":"53.0561","LAUNCH_DATE":"2021-05-26","BSTAR":"-0.00023104000000","MEAN_MOTION":"15.06373315","OBJECT_ID":"2021-044AG","MEAN_ELEMENT_THEORY":"SGP4","CENTER_NAME":"EARTH","ARG_OF_PERICENTER":"63.8826","PERIOD":"95.594","MEAN_MOTION_DDOT":"0.0000000000000","REV_AT_EPOCH":"3900","COUNTRY_CODE":"US","TLE_LINE1":"1 48668U 21044AG  22037.89243761 -.00003719  00000-0 -23104-3 0  9992","APOAPSIS":"548.283","EPHEMERIS_TYPE":"0","TLE_LINE2":"2 48668  53.0561 328.5550 0001426  63.8826 296.2310 15.06373315 39007","EPOCH":"2022-02-06T21:25:06.609504","OBJECT_TYPE":"PAYLOAD","FILE":"3293822","SITE":"AFETR","MEAN_MOTION_DOT":"-0.00003719","OBJECT_NAME":"STARLINK-2738","RCS_SIZE":"LARGE","RA_OF_ASC_NODE":"328.5550","ECCENTRICITY":"0.00014260"},{"SITE":"AFETR","OBJECT_NAME":"STARLINK-2707","MEAN_MOTION_DOT":"-0.00002111","FILE":"3293555","RA_OF_ASC_NODE":"332.1389","RCS_SIZE":"LARGE","ECCENTRICITY":"0.00014350","PERIOD":"95.592","ARG_OF_PERICENTER":"75.7041","TLE_LINE1":"1 48669U 21044AH  22037.09256889 -.00002111  00000-0 -12286-3 0  9994","COUNTRY_CODE":"US","MEAN_MOTION_DDOT":"0.0000000000000","REV_AT_EPOCH":"3887","EPHEMERIS_TYPE":"0","TLE_LINE2":"2 48669  53.0543 332.1389 0001435  75.7041 284.4107 15.06395553 38875","EPOCH":"2022-02-06T02:13:17.952096","APOAPSIS":"548.221","OBJECT_TYPE":"PAYLOAD","LAUNCH_DATE":"2021-05-26","BSTAR":"-0.00012286000000","INCLINATION":"53.0543","MEAN_MOTION":"15.06395553","DECAY_DATE":null,"OBJECT_ID":"2021-044AH","CENTER_NAME":"EARTH","MEAN_ELEMENT_THEORY":"SGP4","PERIAPSIS":"546.233","TIME_SYSTEM":"UTC","ELEMENT_SET_NO":"999","MEAN_ANOMALY":"284.4107","REF_FRAME":"TEME","GP_ID":"195413001","CLASSIFICATION_TYPE":"U","NORAD_CAT_ID":"48669","SEMIMAJOR_AXIS":"6925.362"},{"RA_OF_ASC_NODE":"328.2831","RCS_SIZE":"LARGE","SITE":"AFETR","MEAN_MOTION_DOT":"-0.00003897","OBJECT_NAME":"STARLINK-2763","FILE":"3293822","ECCENTRICITY":"0.00015530","TLE_LINE1":"1 48670U 21044AJ  22037.95140216 -.00003897  00000-0 -24302-3 0  9991","COUNTRY_CODE":"US","REV_AT_EPOCH":"3900","MEAN_MOTION_DDOT":"0.0000000000000","ARG_OF_PERICENTER":"71.0405","PERIOD":"95.594","OBJECT_TYPE":"PAYLOAD","EPOCH":"2022-02-06T22:50:01.146624","TLE_LINE2":"2 48670  53.0544 328.2831 0001553  71.0405 289.0752 15.06373610 39003","EPHEMERIS_TYPE":"0","APOAPSIS":"548.370","MEAN_MOTION":"15.06373610","LAUNCH_DATE":"2021-05-26","BSTAR":"-0.00024302000000","INCLINATION":"53.0544","DECAY_DATE":null,"OBJECT_ID":"2021-044AJ","MEAN_ELEMENT_THEORY":"SGP4","CENTER_NAME":"EARTH","ELEMENT_SET_NO":"999","MEAN_ANOMALY":"289.0752","PERIAPSIS":"546.219","TIME_SYSTEM":"UTC","CLASSIFICATION_TYPE":"U","GP_ID":"195444370","REF_FRAME":"TEME","SEMIMAJOR_AXIS":"6925.429","NORAD_CAT_ID":"48670"},{"DECAY_DATE":null,"MEAN_MOTION":"15.06395812","BSTAR":"-0.00012066000000","LAUNCH_DATE":"2021-05-26","INCLINATION":"53.0563","MEAN_ELEMENT_THEORY":"SGP4","OBJECT_ID":"2021-044AK","CENTER_NAME":"EARTH","MEAN_ANOMALY":"304.9650","ELEMENT_SET_NO":"999","PERIAPSIS":"545.992","TIME_SYSTEM":"UTC","SEMIMAJOR_AXIS":"6925.361","NORAD_CAT_ID":"48671","CLASSIFICATION_TYPE":"U","REF_FRAME":"TEME","GP_ID":"195414503","RCS_SIZE":"LARGE","RA_OF_ASC_NODE":"331.2888","FILE":"3293555","MEAN_MOTION_DOT":"-0.00002078","SITE":"AFETR","OBJECT_NAME":"STARLINK-2745","ECCENTRICITY":"0.00017820","REV_AT_EPOCH":"3890","MEAN_MOTION_DDOT":"0.0000000000000","TLE_LINE1":"1 48671U 21044AK  22037.28423840 -.00002078  00000-0 -12066-3 0  9999","COUNTRY_CODE":"US","ARG_OF_PERICENTER":"55.1506","PERIOD":"95.592","OBJECT_TYPE":"PAYLOAD","APOAPSIS":"548.460","TLE_LINE2":"2 48671  53.0563 331.2888 0001782  55.1506 304.9650 15.06395812 38900","EPOCH":"2022-02-06T06:49:18.197760","EPHEMERIS_TYPE":"0"},{"DECAY_DATE":null,"LAUNCH_DATE":"2021-05-26","BSTAR":"0.00006445300000","INCLINATION":"53.0561","MEAN_MOTION":"15.06398924","MEAN_ELEMENT_THEORY":"SGP4","CENTER_NAME":"EARTH","OBJECT_ID":"2021-044AL","TIME_SYSTEM":"UTC","PERIAPSIS":"546.065","MEAN_ANOMALY":"289.2011","ELEMENT_SET_NO":"999","NORAD_CAT_ID":"48672","SEMIMAJOR_AXIS":"6925.352","GP_ID":"195413251","REF_FRAME":"TEME","CLASSIFICATION_TYPE":"U","FILE":"3293555","OBJECT_NAME":"STARLINK-2705","SITE":"AFETR","MEAN_MOTION_DOT":"0.00000679","RCS_SIZE":"LARGE","RA_OF_ASC_NODE":"330.1100","ECCENTRICITY":"0.00016630","PERIOD":"95.592","ARG_OF_PERICENTER":"70.9158","MEAN_MOTION_DDOT":"0.0000000000000","REV_AT_EPOCH":"3894","TLE_LINE1":"1 48672U 21044AL  22037.54593790  .00000679  00000-0  64453-4 0  9992","COUNTRY_CODE":"US","APOAPSIS":"548.369","EPHEMERIS_TYPE":"0","EPOCH":"2022-02-06T13:06:09.034560","TLE_LINE2":"2 48672  53.0561 330.1100 0001663  70.9158 289.2011 15.06398924 38947","OBJECT_TYPE":"PAYLOAD"},{"OBJECT_TYPE":"PAYLOAD","APOAPSIS":"548.286","EPHEMERIS_TYPE":"0","TLE_LINE2":"2 48673  53.0553 328.3346 0001493  69.4560 290.6589 15.06387466 39004","EPOCH":"2022-02-06T22:34:04.932768","MEAN_MOTION_DDOT":"0.0000000000000","REV_AT_EPOCH":"3900","COUNTRY_CODE":"US","TLE_LINE1":"1 48673U 21044AM  22037.94033487  .00006853  00000-0  47869-3 0  9990","PERIOD":"95.593","ARG_OF_PERICENTER":"69.4560","ECCENTRICITY":"0.00014930","RCS_SIZE":"LARGE","RA_OF_ASC_NODE":"328.3346","FILE":"3293822","OBJECT_NAME":"STARLINK-2711","SITE":"AFETR","MEAN_MOTION_DOT":"0.00006853","NORAD_CAT_ID":"48673","SEMIMAJOR_AXIS":"6925.387","REF_FRAME":"TEME","GP_ID":"195444620","CLASSIFICATION_TYPE":"U","MEAN_ANOMALY":"290.6589","ELEMENT_SET_NO":"999","TIME_SYSTEM":"UTC","PERIAPSIS":"546.218","CENTER_NAME":"EARTH","MEAN_ELEMENT_THEORY":"SGP4","OBJECT_ID":"2021-044AM","DECAY_DATE":null,"INCLINATION":"53.0553","LAUNCH_DATE":"2021-05-26","BSTAR":"0.00047869000000","MEAN_MOTION":"15.06387466"},{"FILE":"3293822","SITE":"AFETR","OBJECT_NAME":"STARLINK-2712","MEAN_MOTION_DOT":"-0.00002116","RCS_SIZE":"LARGE","RA_OF_ASC_NODE":"328.6490","ECCENTRICITY":"0.00015310","ARG_OF_PERICENTER":"71.1523","PERIOD":"95.593","MEAN_MOTION_DDOT":"0.0000000000000","REV_AT_EPOCH":"3899","TLE_LINE1":"1 48674U 21044AN  22037.87031273 -.00002116  00000-0 -12325-3 0  9993","COUNTRY_CODE":"US","APOAPSIS":"548.314","EPHEMERIS_TYPE":"0","TLE_LINE2":"2 48674  53.0562 328.6490 0001531  71.1523 288.9631 15.06386989 38994","EPOCH":"2022-02-06T20:53:15.019872","OBJECT_TYPE":"PAYLOAD","DECAY_DATE":null,"INCLINATION":"53.0562","LAUNCH_DATE":"2021-05-26","BSTAR":"-0.00012325000000","MEAN_MOTION":"15.06386989","OBJECT_ID":"2021-044AN","MEAN_ELEMENT_THEORY":"SGP4","CENTER_NAME":"EARTH","PERIAPSIS":"546.193","TIME_SYSTEM":"UTC","MEAN_ANOMALY":"288.9631","ELEMENT_SET_NO":"999","NORAD_CAT_ID":"48674","SEMIMAJOR_AXIS":"6925.388","REF_FRAME":"TEME","GP_ID":"195444870","CLASSIFICATION_TYPE":"U"}];
